{
    "CCSDS_OMM_VERS": "3.0",
    "COMMENT": "GENERATED VIA SPACE-TRACK.ORG API",
    "CREATION_DATE": "2025-11-22T18:56:57",
    "ORIGINATOR": "18 SPCS",
    "OBJECT_NAME": "COSMOS 2464 (GLONASS)",
    "OBJECT_ID": "2010-041C",
    "CENTER_NAME": "EARTH",
    "REF_FRAME": "TEME",
    "TIME_SYSTEM": "UTC",
    "MEAN_ELEMENT_THEORY": "SGP4",
    "EPOCH": "2025-11-22T13:06:34.418016",
    "MEAN_MOTION": "2.13099104",
    "ECCENTRICITY": "0.00342892",
    "INCLINATION": "63.9134",
    "RA_OF_ASC_NODE": "197.3385",
    "ARG_OF_PERICENTER": "13.1066",
    "MEAN_ANOMALY": "166.1684",
    "EPHEMERIS_TYPE": "0",
    "CLASSIFICATION_TYPE": "U",
    "NORAD_CAT_ID": "37139",
    "ELEMENT_SET_NO": "999",
    "REV_AT_EPOCH": "11848",
    "BSTAR": "0.00000000000000",
    "MEAN_MOTION_DOT": "0.00000066",
    "MEAN_MOTION_DDOT": "0.0000000000000",
    "SEMIMAJOR_AXIS": "25508.256",
    "PERIOD": "675.742",
    "APOAPSIS": "19217.586",
    "PERIAPSIS": "19042.655",
    "OBJECT_TYPE": "PAYLOAD",
    "RCS_SIZE": "LARGE",
    "COUNTRY_CODE": "CIS",
    "LAUNCH_DATE": "2010-09-02",
    "SITE": "TTMTR",
    "DECAY_DATE": null,
    "FILE": "4894246",
    "GP_ID": "303250190",
    "TLE_LINE0": "0 COSMOS 2464 (GLONASS)",
    "TLE_LINE1": "1 37139U 10041C   25326.54623169  .00000066  00000-0  00000-0 0  9995",
    "TLE_LINE2": "2 37139  63.9134 197.3385 0034289  13.1066 166.1684  2.13099104118483"
}